CCSDS_OMM_VERS,COMMENT,CREATION_DATE,ORIGINATOR,OBJECT_NAME,OBJECT_ID,CENTER_NAME,REF_FRAME,TIME_SYSTEM,MEAN_ELEMENT_THEORY,EPOCH,MEAN_MOTION,ECCENTRICITY,INCLINATION,RA_OF_ASC_NODE,ARG_OF_PERICENTER,MEAN_ANOMALY,EPHEMERIS_TYPE,CLASSIFICATION_TYPE,NORAD_CAT_ID,ELEMENT_SET_NO,REV_AT_EPOCH,BSTAR,MEAN_MOTION_DOT,MEAN_MOTION_DDOT,SEMIMAJOR_AXIS,PERIOD,APOAPSIS,PERIAPSIS,OBJECT_TYPE,RCS_SIZE,COUNTRY_CODE,LAUNCH_DATE,SITE,DECAY_DATE,FILE,GP_ID,TLE_LINE0,TLE_LINE1,TLE_LINE2
2,GENERATED VIA SPACE-TRACK.ORG API,2023-03-21T02:22:18,18 SPCS,KSF3-C,2023-001K,EARTH,TEME,UTC,SGP4,2023-03-20T17:05:29.271840,15.14409857,0.000969,97.4889,140.556,325.8615,34.1993,0,U,55018,999,1166,0.00079963,0.00014653,0,6900.908,95.087,529.46,516.086,PAYLOAD,MEDIUM,LUXE,2023-01-03,AFETR,,3866115,228550401,0 KSF3-C,1 55018U 23001K   23079.71214435  .00014653  00000-0  79963-3 0  9999,2 55018  97.4889 140.5560 0009690 325.8615  34.1993 15.14409857 11668
2,GENERATED VIA SPACE-TRACK.ORG API,2023-03-21T17:58:45,18 SPCS,KSF3-C,2023-001K,EARTH,TEME,UTC,SGP4,2023-03-21T04:11:30.672384,15.14426308,0.0009656,97.4888,141.0111,324.1709,35.8874,0,U,55018,999,1173,0.00085482,0.00015678,0,6900.858,95.086,529.386,516.059,PAYLOAD,MEDIUM,LUXE,2023-01-03,AFETR,,3866730,228591839,0 KSF3-C,1 55018U 23001K   23080.17466056  .00015678  00000-0  85482-3 0  9990,2 55018  97.4888 141.0111 0009656 324.1709  35.8874 15.14426308 11737
2,GENERATED VIA SPACE-TRACK.ORG API,2023-03-21T10:06:12,18 SPCS,KSF3-C,2023-001K,EARTH,TEME,UTC,SGP4,2023-03-21T04:11:30.672384,15.14426308,0.0009656,97.4888,141.0111,324.1709,35.8874,0,U,55018,999,1173,0.00085482,0.00015678,0,6900.858,95.086,529.386,516.059,PAYLOAD,MEDIUM,LUXE,2023-01-03,AFETR,,3866437,228559036,0 KSF3-C,1 55018U 23001K   23080.17466056  .00015678  00000-0  85482-3 0  9990,2 55018  97.4888 141.0111 0009656 324.1709  35.8874 15.14426308 11737
2,GENERATED VIA SPACE-TRACK.ORG API,2023-03-22T02:50:58,18 SPCS,KSF3-C,2023-001K,EARTH,TEME,UTC,SGP4,2023-03-21T21:38:06.434304,15.14448199,0.0009571,97.4884,141.7264,321.5141,38.5408,0,U,55018,999,1184,0.00080743,0.00014812,0,6900.791,95.084,529.261,516.052,PAYLOAD,MEDIUM,LUXE,2023-01-03,AFETR,,3866953,228622091,0 KSF3-C,1 55018U 23001K   23080.90146336  .00014812  00000-0  80743-3 0  9991,2 55018  97.4884 141.7264 0009571 321.5141  38.5408 15.14448199 11843
2,GENERATED VIA SPACE-TRACK.ORG API,2023-03-23T07:56:29,18 SPCS,KSF3-C,2023-001K,EARTH,TEME,UTC,SGP4,2023-03-22T16:39:49.807872,15.14474599,0.000947,97.4882,142.5068,318.766,41.2856,0,U,55018,999,1196,0.00085897,0.00015775,0,6900.711,95.082,529.111,516.041,PAYLOAD,MEDIUM,LUXE,2023-01-03,AFETR,,3868201,228676412,0 KSF3-C,1 55018U 23001K   23081.69432648  .00015775  00000-0  85897-3 0  9996,2 55018  97.4882 142.5068 0009470 318.7660  41.2856 15.14474599 11968
2,GENERATED VIA SPACE-TRACK.ORG API,2023-03-22T22:56:12,18 SPCS,KSF3-C,2023-001K,EARTH,TEME,UTC,SGP4,2023-03-22T16:39:49.807872,15.14474599,0.000947,97.4882,142.5068,318.766,41.2856,0,U,55018,999,1196,0.00085897,0.00015775,0,6900.711,95.082,529.111,516.041,PAYLOAD,MEDIUM,LUXE,2023-01-03,AFETR,,3867859,228643262,0 KSF3-C,1 55018U 23001K   23081.69432648  .00015775  00000-0  85897-3 0  9996,2 55018  97.4882 142.5068 0009470 318.7660  41.2856 15.14474599 11968
2,GENERATED VIA SPACE-TRACK.ORG API,2023-03-23T19:40:04,18 SPCS,KSF3-C,2023-001K,EARTH,TEME,UTC,SGP4,2023-03-23T03:45:49.554720,15.1448806,0.0009422,97.488,142.9621,316.9382,43.1112,0,U,55018,999,1203,0.00076796,0.00014099,0,6900.67,95.082,529.037,516.033,PAYLOAD,MEDIUM,LUXE,2023-01-03,AFETR,,3868494,228709696,0 KSF3-C,1 55018U 23001K   23082.15682355  .00014099  00000-0  76796-3 0  9996,2 55018  97.4880 142.9621 0009422 316.9382  43.1112 15.14488060 12036
2,GENERATED VIA SPACE-TRACK.ORG API,2023-03-23T23:06:13,18 SPCS,KSF3-C,2023-001K,EARTH,TEME,UTC,SGP4,2023-03-23T18:02:05.813952,15.14509091,0.000937,97.4877,143.5473,314.5864,45.4602,0,U,55018,999,1212,0.00087036,0.00016001,0,6900.606,95.08,528.937,516.005,PAYLOAD,MEDIUM,LUXE,2023-01-03,AFETR,,3868740,228715526,0 KSF3-C,1 55018U 23001K   23082.75145618  .00016001  00000-0  87036-3 0  9992,2 55018  97.4877 143.5473 0009370 314.5864  45.4602 15.14509091 12122
2,GENERATED VIA SPACE-TRACK.ORG API,2023-03-24T02:59:46,18 SPCS,KSF3-C,2023-001K,EARTH,TEME,UTC,SGP4,2023-03-23T21:12:22.594176,15.14520015,0.0009368,97.4876,143.6775,314.0626,45.9833,0,U,55018,999,1214,0.0011377,0.00020957,0,6900.573,95.08,528.903,515.974,PAYLOAD,MEDIUM,LUXE,2023-01-03,AFETR,,3868816,228741786,0 KSF3-C,1 55018U 23001K   23082.88359484  .00020957  00000-0  11377-2 0  9993,2 55018  97.4876 143.6775 0009368 314.0626  45.9833 15.14520015 12147
2,GENERATED VIA SPACE-TRACK.ORG API,2023-03-24T21:00:36,18 SPCS,KSF3-C,2023-001K,EARTH,TEME,UTC,SGP4,2023-03-24T03:32:55.964544,15.14570372,0.0009385,97.4875,143.9375,313.077,46.9676,0,U,55018,999,1218,0.0029274,0.0005435,0,6900.42,95.076,528.761,515.809,PAYLOAD,MEDIUM,LUXE,2023-01-03,AFETR,,3869846,228794178,0 KSF3-C,1 55018U 23001K   23083.14786996  .00054350  00000-0  29274-2 0  9994,2 55018  97.4875 143.9375 0009385 313.0770  46.9676 15.14570372 12184
2,GENERATED VIA SPACE-TRACK.ORG API,2023-03-24T07:26:16,18 SPCS,KSF3-C,2023-001K,EARTH,TEME,UTC,SGP4,2023-03-24T03:32:55.964544,15.14570372,0.0009385,97.4875,143.9375,313.077,46.9676,0,U,55018,999,1218,0.0029274,0.0005435,0,6900.42,95.076,528.761,515.809,PAYLOAD,MEDIUM,LUXE,2023-01-03,AFETR,,3869113,228750560,0 KSF3-C,1 55018U 23001K   23083.14786996  .00054350  00000-0  29274-2 0  9994,2 55018  97.4875 143.9375 0009385 313.0770  46.9676 15.14570372 12184
2,GENERATED VIA SPACE-TRACK.ORG API,2023-03-25T03:11:45,18 SPCS,KSF3-C,2023-001K,EARTH,TEME,UTC,SGP4,2023-03-24T16:14:02.160096,15.14568956,0.0009339,97.487,144.4578,310.4826,49.5591,0,U,55018,999,1226,0.0014498,0.00026782,0,6900.424,95.077,528.734,515.845,PAYLOAD,MEDIUM,LUXE,2023-01-03,AFETR,,3870109,228826051,0 KSF3-C,1 55018U 23001K   23083.67641389  .00026782  00000-0  14498-2 0  9998,2 55018  97.4870 144.4578 0009339 310.4826  49.5591 15.14568956 12261
2,GENERATED VIA SPACE-TRACK.ORG API,2023-03-24T18:26:12,18 SPCS,KSF3-C,2023-001K,EARTH,TEME,UTC,SGP4,2023-03-24T16:14:02.160096,15.14568956,0.0009339,97.487,144.4578,310.4826,49.5591,0,U,55018,999,1226,0.0014498,0.00026782,0,6900.424,95.077,528.734,515.845,PAYLOAD,MEDIUM,LUXE,2023-01-03,AFETR,,3869777,228766167,0 KSF3-C,1 55018U 23001K   23083.67641389  .00026782  00000-0  14498-2 0  9998,2 55018  97.4870 144.4578 0009339 310.4826  49.5591 15.14568956 12261
2,GENERATED VIA SPACE-TRACK.ORG API,2023-03-25T14:56:14,18 SPCS,KSF3-C,2023-001K,EARTH,TEME,UTC,SGP4,2023-03-25T09:40:32.044224,15.14593123,0.0009414,97.4867,145.1732,307.1168,52.9203,0,U,55018,999,1237,0.0010002,0.00018448,0,6900.351,95.075,528.712,515.72,PAYLOAD,MEDIUM,LUXE,2023-01-03,AFETR,,3870707,228839717,0 KSF3-C,1 55018U 23001K   23084.40314866  .00018448  00000-0  10002-2 0  9994,2 55018  97.4867 145.1732 0009414 307.1168  52.9203 15.14593123 12377
2,GENERATED VIA SPACE-TRACK.ORG API,2023-03-26T02:10:07,18 SPCS,KSF3-C,2023-001K,EARTH,TEME,UTC,SGP4,2023-03-25T17:36:12.576960,15.14604792,0.0009424,97.4864,145.4982,306.2438,53.7922,0,U,55018,999,1242,0.0010069,0.00018578,0,6900.316,95.074,528.683,515.678,PAYLOAD,MEDIUM,LUXE,2023-01-03,AFETR,,3871104,228874662,0 KSF3-C,1 55018U 23001K   23084.73347890  .00018578  00000-0  10069-2 0  9990,2 55018  97.4864 145.4982 0009424 306.2438  53.7922 15.14604792 12423
2,GENERATED VIA SPACE-TRACK.ORG API,2023-03-27T02:08:10,18 SPCS,KSF3-C,2023-001K,EARTH,TEME,UTC,SGP4,2023-03-26T17:23:12.946560,15.14633607,0.0009441,97.4865,146.4738,302.1044,57.9271,0,U,55018,999,1257,0.00088213,0.00016276,0,6900.228,95.072,528.608,515.579,PAYLOAD,MEDIUM,LUXE,2023-01-03,AFETR,,3871964,228920824,0 KSF3-C,1 55018U 23001K   23085.72445540  .00016276  00000-0  88213-3 0  9991,2 55018  97.4865 146.4738 0009441 302.1044  57.9271 15.14633607 12577
2,GENERATED VIA SPACE-TRACK.ORG API,2023-03-26T23:06:12,18 SPCS,KSF3-C,2023-001K,EARTH,TEME,UTC,SGP4,2023-03-26T17:23:12.946560,15.14633607,0.0009441,97.4865,146.4738,302.1044,57.9271,0,U,55018,999,1257,0.00088213,0.00016276,0,6900.228,95.072,528.608,515.579,PAYLOAD,MEDIUM,LUXE,2023-01-03,AFETR,,3871908,228894808,0 KSF3-C,1 55018U 23001K   23085.72445540  .00016276  00000-0  88213-3 0  9991,2 55018  97.4865 146.4738 0009441 302.1044  57.9271 15.14633607 12577
2,GENERATED VIA SPACE-TRACK.ORG API,2023-03-27T18:16:02,18 SPCS,KSF3-C,2023-001K,EARTH,TEME,UTC,SGP4,2023-03-27T02:54:00.635616,15.14645651,0.00094,97.4865,146.8639,300.425,59.6053,0,U,55018,999,1263,0.00085654,0.00015806,0,6900.192,95.072,528.543,515.57,PAYLOAD,MEDIUM,LUXE,2023-01-03,AFETR,,3872569,228961100,0 KSF3-C,1 55018U 23001K   23086.12084069  .00015806  00000-0  85654-3 0  9995,2 55018  97.4865 146.8639 0009400 300.4250  59.6053 15.14645651 12632
2,GENERATED VIA SPACE-TRACK.ORG API,2023-03-28T02:32:37,18 SPCS,KSF3-C,2023-001K,EARTH,TEME,UTC,SGP4,2023-03-27T21:55:35.179104,15.14669502,0.000939,97.4867,147.6442,297.3172,62.7104,0,U,55018,999,1275,0.00084745,0.00015648,0,6900.119,95.07,528.463,515.505,PAYLOAD,MEDIUM,LUXE,2023-01-03,AFETR,,3872915,228995304,0 KSF3-C,1 55018U 23001K   23086.91360161  .00015648  00000-0  84745-3 0  9996,2 55018  97.4867 147.6442 0009390 297.3172  62.7104 15.14669502 12756
2,GENERATED VIA SPACE-TRACK.ORG API,2023-03-28T00:16:13,18 SPCS,KSF3-C,2023-001K,EARTH,TEME,UTC,SGP4,2023-03-27T21:55:35.179104,15.14669502,0.000939,97.4867,147.6442,297.3172,62.7104,0,U,55018,999,1275,0.00084745,0.00015648,0,6900.119,95.07,528.463,515.505,PAYLOAD,MEDIUM,LUXE,2023-01-03,AFETR,,3872831,228968524,0 KSF3-C,1 55018U 23001K   23086.91360161  .00015648  00000-0  84745-3 0  9996,2 55018  97.4867 147.6442 0009390 297.3172  62.7104 15.14669502 12756
